GOMX-4B                 
1 43196U 18015E   24030.91701494  .00033851  00000+0  63222-3 0  9999
2 43196  97.5959 195.7760 0010620 101.0018 259.2427 15.48636288334039
GOMX-4A                 
1 43197U 18015F   24030.95649873  .00041564  00000+0  64110-3 0  9993
2 43197  97.5923 199.3615 0009461  91.2295 269.0042 15.53995342334282
CUBEBEL-1 (BSUSAT-1)    
1 43666U 18083E   24030.80830656  .00235046  00000+0  15577-2 0  9996
2 43666  97.3430  72.6128 0003754  17.1982 342.9409 15.74825400292477
CICERO 10               
1 43690U 18088A   24030.71837288  .00053416  00000+0  88730-3 0  9997
2 43690  85.0223 277.1288 0011220  86.8279 273.4262 15.51810126290574
PROXIMA I               
1 43694U 18088E   24030.88941455  .00066579  00000+0  81892-3 0  9997
2 43694  85.0139 271.3093 0011115  57.5748 302.6588 15.59939711290995
PROXIMA II              
1 43696U 18088G   24030.68007440  .00071563  00000+0  89664-3 0  9998
2 43696  85.0126 271.5709 0010974  57.0004 303.2311 15.59440218290946
SIRION PATHFINDER-2     
1 43759U 18099B   24030.90728573  .00005182  00000+0  41027-3 0  9997
2 43759  97.5443  90.9790 0016246  42.7145 317.5339 15.00911958281751
CORVUS BC4              
1 43767U 18099K   24030.68262726  .00004767  00000+0  38384-3 0  9994
2 43767  97.5319  88.3902 0012215  99.4337 260.8269 15.00351347281619
MOVE-II                 
1 43780U 18099Y   24030.71059732  .00015503  00000+0  95371-3 0  9993
2 43780  97.5417  95.4956 0008855  93.9009 266.3233 15.10083489281994
SPACEBEE-7              
1 43816U 18099BL  24030.91112942  .00010114  00000+0  67197-3 0  9996
2 43816  97.5689  96.6330 0011892  47.9138 312.3099 15.07335742281553
SPACEBEE-5              
1 43817U 18099BM  24030.74681945  .00351799  00000+0  37463-2 0  9991
2 43817  97.5543 112.9829 0006621 308.5350  51.5313 15.62836655282534
SPACEBEE-6              
1 43818U 18099BN  24030.43809202  .00021443  00000+0  11664-2 0  9991
2 43818  97.5607  99.7148 0010924  57.0196 303.2084 15.14432731281857
SHIELDS 1               
1 43850U 18104B   24030.96674427  .00011826  00000+0  36424-3 0  9997
2 43850  85.0254  16.5886 0009663 218.3083 141.7480 15.33442843284959
STF-1                   
1 43852U 18104D   24030.94577747  .00368879  00000+0  13723-2 0  9993
2 43852  85.0055   7.9589 0009298 135.4582 224.7444 15.87098794285832
ZACUBE-2                
1 43907U 18111AH  24030.91849978  .00092937  00000+0  94404-3 0  9992
2 43907  97.0954 272.6371 0012184  91.7075 268.5581 15.64805344284427
LUME 1                  
1 43908U 18111AJ  24030.67844449  .00532552  12038-3  12599-2 0  9998
2 43908  97.0927 279.9205 0008161  85.8090 274.4120 15.96716401284880
SONATE                  
1 44400U 19038Q   24030.95996836  .00015198  00000+0  55775-3 0  9992
2 44400  97.7069  19.6467 0016043 230.2620 129.7205 15.27935001252934
LUCKY-7                 
1 44406U 19038W   24030.96355998  .00023139  00000+0  70900-3 0  9998
2 44406  97.7003  22.2307 0014056 215.3350 144.6962 15.33706923253110
BEESAT 9                
1 44412U 19038AC  24030.92167231  .00060810  00000+0  10839-2 0  9993
2 44412  97.6872  27.1174 0009673 185.3318 174.7831 15.49849268253166
JAISAT-1                
1 44419U 19038F   24030.91559728  .00058529  00000+0  10520-2 0  9996
2 44419  97.6855  28.2123 0009446 182.2536 177.8673 15.49623359253547
DUCHIFAT-3              
1 44854U 19089C   24030.74882964  .00013922  00000+0  80750-3 0  9998
2 44854  36.9587 166.2099 0008231  33.5783 326.5483 15.11532597227282
M2 PATHFINDER           
1 45727U 20037E   24030.44309431  .00004926  00000+0  44543-3 0  9997
2 45727  97.7664 207.8031 0010410 222.5752 137.4663 14.95863917195196
NETSAT-4                
1 46504U 20068U   24030.81902933  .00010691  00000+0  63056-3 0  9998
2 46504  97.7908 344.7551 0012283 110.9908 249.2637 15.11686333183242
NETSAT-3                
1 46505U 20068V   24030.82662750  .00010040  00000+0  59889-3 0  9997
2 46505  97.7880 344.4229 0011288 118.1758 242.0613 15.11303704183241
NETSAT-1                
1 46506U 20068W   24030.82407735  .00008127  00000+0  49884-3 0  9995
2 46506  97.7900 344.1375 0009609 126.4030 233.8087 15.10344335183228
NETSAT-2                
1 46507U 20068X   24030.82821457  .00009991  00000+0  59136-3 0  9998
2 46507  97.7892 344.4430 0008979 130.1757 230.0260 15.11606682183196
WILDTRACKCUBE-SIMBA     
1 47941U 21022K   24030.91910238  .00011185  00000+0  56506-3 0  9994
2 47941  97.4765 289.2602 0015002 268.6392  91.3123 15.17148992157478
BEESAT-6                
1 47957U 21022AB  24030.69015188  .00055943  00000+0  16104-2 0  9995
2 47957  97.4673 294.6210 0008185 239.1365 120.9073 15.35541462157624
SMOG-1                  
1 47964U 21022AJ  24030.69092339  .00051356  00000+0  14195-2 0  9998
2 47964  97.4787 297.4477 0007676 220.0165 140.0514 15.36839172156806
BCCSAT-1                
1 48041U 21022AK  24030.69930482  .00036818  00000+0  12088-2 0  9990
2 48041  97.4783 295.1883 0006929 226.1430 133.9239 15.31469116156635
BEESAT-5                
1 48083U 21022AM  24028.19121483  .00076249  00000+0  19819-2 0  9992
2 48083  97.4536 292.6870 0006870 241.7239 118.3313 15.38632646156446
BEESAT-7                
1 48084U 21022AN  24028.70972153  .00053477  00000+0  15480-2 0  9996
2 48084  97.4701 292.9431 0008027 246.9691 113.0706 15.35380239156063
BEESAT-8                
1 48085U 21022AP  24030.25731530  .00023691  00000+0  98212-3 0  9992
2 48085  97.4841 291.8357 0012040 258.8363 101.1520 15.23821401156668
LEDSAT                  
1 49069U 21073D   24030.73720419  .00013584  00000+0  63397-3 0  9994
2 49069  97.4557 103.2465 0022370  51.7704 308.5540 15.19732178135396
<!DOCTYPE html PUBLIC "-//W3C//DTD XHTML 1.0 Strict//EN" "http://www.w3.org/TR/xhtml1/DTD/xhtml1-strict.dtd">
<html xmlns="http://www.w3.org/1999/xhtml">
<head>
<meta http-equiv="Content-Type" content="text/html; charset=iso-8859-1"/>
<title>404 - File Not Found.</title>
<style type="text/css">
<!--
body{margin:0;font-size:.7em;font-family:Verdana, Arial, Helvetica, sans-serif;background:#EEEEEE;}
fieldset{padding:0 15px 10px 15px;}
h1{font-size:2.4em;margin:0;color:#FFF;}
h2{font-size:1.7em;margin:0;color:#CC0000;}
h3{font-size:1.2em;margin:10px 0 0 0;color:#000000;}
#header{width:96%;margin:0 0 0 0;padding:6px 2% 6px 2%;font-family:"trebuchet MS", Verdana, sans-serif;color:#FFF;
background-color:#555555;}
#content{margin:0 0 0 2%;position:relative;}
.content-container{background:#FFF;width:96%;margin-top:8px;padding:10px;position:relative;}
-->
</style>
</head>
<body>
<div id="header"><h1>Server Error</h1></div>
<div id="content">
 <div class="content-container"><fieldset>
  <h2>404 - File Not Found.</h2>
  <h3>File not found for celestrak.org/NORAD/elements/active.txt.</h3>
  <h3>Please contact <a href="mailto:ts.kelso@celestrak.org">ts.kelso@celestrak.org</a> if you have other questions.</h3>
 </fieldset></div>
</div>
</body>
</html>
BEIJING 1               
1 28890U 05043A   24030.93177687  .00000578  00000+0  12432-3 0  9990
2 28890  98.1808 154.9860 0016121 117.1597 243.1250 14.62116828973698
HJ-1A                   
1 33320U 08041A   24030.92974890  .00001680  00000+0  23199-3 0  9992
2 33320  97.6358  44.8219 0022027 101.6438 258.7248 14.79205813829819
HJ-1B                   
1 33321U 08041B   24030.97194113  .00001300  00000+0  17742-3 0  9996
2 33321  97.6337  49.3761 0039537 145.8156 214.5614 14.79704886829844
YAOGAN 4                
1 33446U 08061A   24030.78004750  .00002146  00000+0  29601-3 0  9998
2 33446  97.8713 325.4467 0015685  20.1654 340.0174 14.79122632817092
DEIMOS-1                
1 35681U 09041A   24030.90417267  .00000903  00000+0  14780-3 0  9996
2 35681  97.6760 220.2769 0002772 100.9160 259.2361 14.72974541778951
UK-DMC 2                
1 35683U 09041C   24030.90373613  .00001322  00000+0  21408-3 0  9995
2 35683  97.7577 184.4716 0001398  98.9250 261.2117 14.72807392778605
RISAT 1                 
1 38248U 12017A   24030.96924436  .00009174  00000+0  42329-3 0  9991
2 38248  97.5340  48.1895 0004069  37.7024 322.4496 15.20453960648555
DMC3-FM1                
1 40715U 15032A   24030.89149391  .00001010  00000+0  12974-3 0  9998
2 40715  97.7710 273.7207 0006675  37.1708 322.9967 14.83291938461072
DMC3-FM2                
1 40716U 15032B   24030.91472767  .00001074  00000+0  13749-3 0  9999
2 40716  97.7761 274.7225 0008663  38.5699 321.6133 14.83293696461077
DMC3-FM3                
1 40717U 15032C   24030.86903882  .00001058  00000+0  13560-3 0  9994
2 40717  97.7807 275.8787 0010049  34.5244 325.6621 14.83285180461072
NOAA 15                 
1 25338U 98030A   24030.92115576  .00000234  00000+0  11509-3 0  9993
2 25338  98.5848  60.8382 0010492  14.7846 345.3639 14.26482977337475
DMSP 5D-3 F16 (USA 172) 
1 28054U 03048A   24030.95267400  .00000220  00000+0  13973-3 0  9995
2 28054  99.0211  36.1295 0008243  85.1830 334.4320 14.13939474 46768
NOAA 18                 
1 28654U 05018A   24030.93098659  .00000289  00000+0  17830-3 0  9997
2 28654  98.8877 108.9954 0015217  95.7169 264.5739 14.13112220963644
METEOSAT-9 (MSG-2)      
1 28912U 05049B   24030.71095597  .00000136  00000+0  00000+0 0  9990
2 28912   7.3670  62.0113 0000557 269.5855  99.6356  1.00279313 66340
EWS-G1 (GOES 13)        
1 29155U 06018A   24030.86061823  .00000059  00000+0  00000+0 0  9992
2 29155   2.2629  86.9489 0088186 249.2344 181.3060  0.99152219 34664
DMSP 5D-3 F17 (USA 191) 
1 29522U 06050A   24030.96219039  .00000228  00000+0  14152-3 0  9996
2 29522  98.7492  44.3665 0010200  19.6270 340.5294 14.14384008889653
